start=new Date('2022-12-08T00:00:00.000Z').valueOf();
sats=[{"PERIOD":"95.590","EPHEMERIS_TYPE":"0","GP_ID":"219740610","BSTAR":"0.00043227000000","REV_AT_EPOCH":"8927","PERIAPSIS":"546.147","MEAN_ELEMENT_THEORY":"SGP4","EPOCH":"2022-12-07T19:02:37.169664","MEAN_MOTION_DOT":"0.00006169","TIME_SYSTEM":"UTC","COUNTRY_CODE":"US","NORAD_CAT_ID":"48282","APOAPSIS":"548.066","MEAN_MOTION":"15.06434895","DECAY_DATE":null,"OBJECT_NAME":"STARLINK-2558","SEMIMAJOR_AXIS":"6925.242","FILE":"3684212","TLE_LINE2":"2 48282  53.0562  14.2969 0001385  53.0475 307.0641 15.06434895 89271","RA_OF_ASC_NODE":"14.2969","ELEMENT_SET_NO":"999","MEAN_ANOMALY":"307.0641","ARG_OF_PERICENTER":"53.0475","OBJECT_TYPE":"PAYLOAD","INCLINATION":"53.0562","REF_FRAME":"TEME","LAUNCH_DATE":"2021-04-29","CENTER_NAME":"EARTH","TLE_LINE1":"1 48282U 21036G   22341.79348576  .00006169  00000-0  43227-3 0  9990","ECCENTRICITY":"0.00013850","CLASSIFICATION_TYPE":"U","MEAN_MOTION_DDOT":"0.0000000000000","OBJECT_ID":"2021-036G","RCS_SIZE":"LARGE","SITE":"AFETR"},{"SITE":"AFETR","RCS_SIZE":"MEDIUM","OBJECT_ID":"2021-036H","MEAN_MOTION_DDOT":"0.0000000000000","CLASSIFICATION_TYPE":"U","ECCENTRICITY":"0.00020210","TLE_LINE1":"1 48283U 21036H   22341.78983871 -.00001705  00000-0 -95583-4 0  9999","CENTER_NAME":"EARTH","LAUNCH_DATE":"2021-04-29","REF_FRAME":"TEME","INCLINATION":"53.0566","OBJECT_TYPE":"PAYLOAD","ARG_OF_PERICENTER":"59.2110","MEAN_ANOMALY":"300.9078","RA_OF_ASC_NODE":"14.3112","ELEMENT_SET_NO":"999","TLE_LINE2":"2 48283  53.0566  14.3112 0002021  59.2110 300.9078 15.06391889 89270","FILE":"3684212","SEMIMAJOR_AXIS":"6925.373","DECAY_DATE":null,"OBJECT_NAME":"STARLINK-2516","MEAN_MOTION":"15.06391889","APOAPSIS":"548.638","NORAD_CAT_ID":"48283","COUNTRY_CODE":"US","TIME_SYSTEM":"UTC","MEAN_MOTION_DOT":"-0.00001705","EPOCH":"2022-12-07T18:57:22.064544","MEAN_ELEMENT_THEORY":"SGP4","PERIAPSIS":"545.839","REV_AT_EPOCH":"8927","BSTAR":"-0.00009558300000","GP_ID":"219739360","EPHEMERIS_TYPE":"0","PERIOD":"95.593"},{"OBJECT_TYPE":"PAYLOAD","ARG_OF_PERICENTER":"91.5344","MEAN_ANOMALY":"268.5730","INCLINATION":"53.0568","CENTER_NAME":"EARTH","LAUNCH_DATE":"2021-04-29","REF_FRAME":"TEME","TLE_LINE1":"1 48284U 21036J   22341.78614715 -.00000830  00000-0 -36872-4 0  9992","MEAN_MOTION_DDOT":"0.0000000000000","OBJECT_ID":"2021-036J","CLASSIFICATION_TYPE":"U","ECCENTRICITY":"0.00007460","SITE":"AFETR","RCS_SIZE":"LARGE","PERIOD":"95.592","GP_ID":"219739610","EPHEMERIS_TYPE":"0","PERIAPSIS":"546.702","REV_AT_EPOCH":"8926","BSTAR":"-0.00003687200000","MEAN_MOTION_DOT":"-0.00000830","EPOCH":"2022-12-07T18:52:03.113760","MEAN_ELEMENT_THEORY":"SGP4","COUNTRY_CODE":"US","TIME_SYSTEM":"UTC","MEAN_MOTION":"15.06398288","APOAPSIS":"547.735","NORAD_CAT_ID":"48284","SEMIMAJOR_AXIS":"6925.354","OBJECT_NAME":"STARLINK-2564","DECAY_DATE":null,"RA_OF_ASC_NODE":"14.3351","ELEMENT_SET_NO":"999","TLE_LINE2":"2 48284  53.0568  14.3351 0000746  91.5344 268.5730 15.06398288 89261","FILE":"3684212"},{"FILE":"3684212","RA_OF_ASC_NODE":"16.1339","ELEMENT_SET_NO":"999","TLE_LINE2":"2 48285  53.0573  16.1339 0001731  48.7038 311.4100 15.06395616 89208","OBJECT_NAME":"STARLINK-2548","DECAY_DATE":null,"SEMIMAJOR_AXIS":"6925.362","APOAPSIS":"548.426","NORAD_CAT_ID":"48285","MEAN_MOTION":"15.06395616","COUNTRY_CODE":"US","TIME_SYSTEM":"UTC","MEAN_ELEMENT_THEORY":"SGP4","MEAN_MOTION_DOT":"-0.00001369","EPOCH":"2022-12-07T09:12:08.892864","BSTAR":"-0.00007301700000","PERIAPSIS":"546.028","REV_AT_EPOCH":"8920","GP_ID":"219740862","EPHEMERIS_TYPE":"0","PERIOD":"95.592","RCS_SIZE":"LARGE","SITE":"AFETR","CLASSIFICATION_TYPE":"U","ECCENTRICITY":"0.00017310","MEAN_MOTION_DDOT":"0.0000000000000","OBJECT_ID":"2021-036K","TLE_LINE1":"1 48285U 21036K   22341.38343626 -.00001369  00000-0 -73017-4 0  9999","REF_FRAME":"TEME","CENTER_NAME":"EARTH","LAUNCH_DATE":"2021-04-29","INCLINATION":"53.0573","ARG_OF_PERICENTER":"48.7038","MEAN_ANOMALY":"311.4100","OBJECT_TYPE":"PAYLOAD"},{"DECAY_DATE":null,"OBJECT_NAME":"STARLINK-2547","SEMIMAJOR_AXIS":"6925.365","FILE":"3684212","TLE_LINE2":"2 48286  53.0553  15.5553 0001624  67.3539 292.7621 15.06394564 89224","RA_OF_ASC_NODE":"15.5553","ELEMENT_SET_NO":"999","TIME_SYSTEM":"UTC","COUNTRY_CODE":"US","NORAD_CAT_ID":"48286","APOAPSIS":"548.355","MEAN_MOTION":"15.06394564","BSTAR":"0.00003037300000","REV_AT_EPOCH":"8922","PERIAPSIS":"546.106","MEAN_ELEMENT_THEORY":"SGP4","EPOCH":"2022-12-07T12:19:17.010048","MEAN_MOTION_DOT":"0.00000171","PERIOD":"95.592","EPHEMERIS_TYPE":"0","GP_ID":"219741111","ECCENTRICITY":"0.00016240","CLASSIFICATION_TYPE":"U","OBJECT_ID":"2021-036L","MEAN_MOTION_DDOT":"0.0000000000000","RCS_SIZE":"LARGE","SITE":"AFETR","REF_FRAME":"TEME","LAUNCH_DATE":"2021-04-29","CENTER_NAME":"EARTH","TLE_LINE1":"1 48286U 21036L   22341.51339132  .00000171  00000-0  30373-4 0  9998","INCLINATION":"53.0553","MEAN_ANOMALY":"292.7621","ARG_OF_PERICENTER":"67.3539","OBJECT_TYPE":"PAYLOAD"},{"PERIOD":"95.593","EPHEMERIS_TYPE":"0","GP_ID":"219739861","REV_AT_EPOCH":"8923","PERIAPSIS":"546.195","BSTAR":"-0.00013509000000","EPOCH":"2022-12-07T13:49:31.035360","MEAN_MOTION_DOT":"-0.00002292","MEAN_ELEMENT_THEORY":"SGP4","TIME_SYSTEM":"UTC","COUNTRY_CODE":"US","MEAN_MOTION":"15.06387126","NORAD_CAT_ID":"48287","APOAPSIS":"548.311","SEMIMAJOR_AXIS":"6925.388","OBJECT_NAME":"STARLINK-2566","DECAY_DATE":null,"TLE_LINE2":"2 48287  53.0562  15.2781 0001528  68.1490 291.9661 15.06387126 89235","ELEMENT_SET_NO":"999","RA_OF_ASC_NODE":"15.2781","FILE":"3684212","OBJECT_TYPE":"PAYLOAD","MEAN_ANOMALY":"291.9661","ARG_OF_PERICENTER":"68.1490","INCLINATION":"53.0562","LAUNCH_DATE":"2021-04-29","CENTER_NAME":"EARTH","REF_FRAME":"TEME","TLE_LINE1":"1 48287U 21036M   22341.57605365 -.00002292  00000-0 -13509-3 0  9998","OBJECT_ID":"2021-036M","MEAN_MOTION_DDOT":"0.0000000000000","ECCENTRICITY":"0.00015280","CLASSIFICATION_TYPE":"U","SITE":"AFETR","RCS_SIZE":"LARGE"},{"NORAD_CAT_ID":"48288","APOAPSIS":"548.861","MEAN_MOTION":"15.06315635","TIME_SYSTEM":"UTC","COUNTRY_CODE":"US","FILE":"3684212","TLE_LINE2":"2 48288  53.0578  14.0986 0002005 290.8324  69.2450 15.06315635 89270","ELEMENT_SET_NO":"999","RA_OF_ASC_NODE":"14.0986","DECAY_DATE":null,"OBJECT_NAME":"STARLINK-2562","SEMIMAJOR_AXIS":"6925.607","EPHEMERIS_TYPE":"0","GP_ID":"219740111","PERIOD":"95.597","MEAN_ELEMENT_THEORY":"SGP4","EPOCH":"2022-12-07T20:05:05.487648","MEAN_MOTION_DOT":"-0.00017854","BSTAR":"-0.00118540000000","REV_AT_EPOCH":"8927","PERIAPSIS":"546.084","TLE_LINE1":"1 48288U 21036N   22341.83686907 -.00017854  00000-0 -11854-2 0  9999","REF_FRAME":"TEME","LAUNCH_DATE":"2021-04-29","CENTER_NAME":"EARTH","RCS_SIZE":"LARGE","SITE":"AFETR","ECCENTRICITY":"0.00020050","CLASSIFICATION_TYPE":"U","MEAN_MOTION_DDOT":"0.0000000000000","OBJECT_ID":"2021-036N","MEAN_ANOMALY":"69.2450","ARG_OF_PERICENTER":"290.8324","OBJECT_TYPE":"PAYLOAD","INCLINATION":"53.0578"},{"INCLINATION":"53.0566","MEAN_ANOMALY":"324.9648","ARG_OF_PERICENTER":"35.1513","OBJECT_TYPE":"PAYLOAD","RCS_SIZE":"LARGE","SITE":"AFETR","ECCENTRICITY":"0.00026090","CLASSIFICATION_TYPE":"U","OBJECT_ID":"2021-036P","MEAN_MOTION_DDOT":"0.0000000000000","TLE_LINE1":"1 48289U 21036P   22341.83406552  .00000888  00000-0  78552-4 0  9993","REF_FRAME":"TEME","LAUNCH_DATE":"2021-04-29","CENTER_NAME":"EARTH","MEAN_ELEMENT_THEORY":"SGP4","EPOCH":"2022-12-07T20:01:03.260928","MEAN_MOTION_DOT":"0.00000888","BSTAR":"0.00007855200000","REV_AT_EPOCH":"8927","PERIAPSIS":"545.430","EPHEMERIS_TYPE":"0","GP_ID":"219740362","PERIOD":"95.593","FILE":"3684212","TLE_LINE2":"2 48289  53.0566  14.1248 0002609  35.1513 324.9648 15.06392447 89276","RA_OF_ASC_NODE":"14.1248","ELEMENT_SET_NO":"999","OBJECT_NAME":"STARLINK-2545","DECAY_DATE":null,"SEMIMAJOR_AXIS":"6925.372","NORAD_CAT_ID":"48289","APOAPSIS":"549.044","MEAN_MOTION":"15.06392447","TIME_SYSTEM":"UTC","COUNTRY_CODE":"US"},{"INCLINATION":"53.0563","MEAN_ANOMALY":"295.9441","ARG_OF_PERICENTER":"64.1718","OBJECT_TYPE":"PAYLOAD","RCS_SIZE":"LARGE","SITE":"AFETR","ECCENTRICITY":"0.00016510","CLASSIFICATION_TYPE":"U","MEAN_MOTION_DDOT":"0.0000000000000","OBJECT_ID":"2021-036Q","TLE_LINE1":"1 48290U 21036Q   22341.83037267  .00002857  00000-0  21058-3 0  9994","REF_FRAME":"TEME","LAUNCH_DATE":"2021-04-29","CENTER_NAME":"EARTH","MEAN_ELEMENT_THEORY":"SGP4","EPOCH":"2022-12-07T19:55:44.198688","MEAN_MOTION_DOT":"0.00002857","BSTAR":"0.00021058000000","REV_AT_EPOCH":"8927","PERIAPSIS":"546.056","EPHEMERIS_TYPE":"0","GP_ID":"219740611","PERIOD":"95.592","FILE":"3684212","TLE_LINE2":"2 48290  53.0563  14.1202 0001651  64.1718 295.9441 15.06404588 89278","RA_OF_ASC_NODE":"14.1202","ELEMENT_SET_NO":"999","OBJECT_NAME":"STARLINK-2540","DECAY_DATE":null,"SEMIMAJOR_AXIS":"6925.334","NORAD_CAT_ID":"48290","APOAPSIS":"548.343","MEAN_MOTION":"15.06404588","TIME_SYSTEM":"UTC","COUNTRY_CODE":"US"},{"CLASSIFICATION_TYPE":"U","ECCENTRICITY":"0.00017540","OBJECT_ID":"2021-036R","MEAN_MOTION_DDOT":"0.0000000000000","RCS_SIZE":"LARGE","SITE":"AFETR","REF_FRAME":"TEME","CENTER_NAME":"EARTH","LAUNCH_DATE":"2021-04-29","TLE_LINE1":"1 48291U 21036R   22341.82668948  .00009009  00000-0  62278-3 0  9995","INCLINATION":"53.0547","ARG_OF_PERICENTER":"49.2117","MEAN_ANOMALY":"310.9024","OBJECT_TYPE":"PAYLOAD","DECAY_DATE":null,"OBJECT_NAME":"STARLINK-2555","SEMIMAJOR_AXIS":"6925.318","FILE":"3684212","RA_OF_ASC_NODE":"14.1348","ELEMENT_SET_NO":"999","TLE_LINE2":"2 48291  53.0547  14.1348 0001754  49.2117 310.9024 15.06409847 89271","COUNTRY_CODE":"US","TIME_SYSTEM":"UTC","APOAPSIS":"548.398","NORAD_CAT_ID":"48291","MEAN_MOTION":"15.06409847","BSTAR":"0.00062278000000","PERIAPSIS":"545.969","REV_AT_EPOCH":"8927","MEAN_ELEMENT_THEORY":"SGP4","MEAN_MOTION_DOT":"0.00009009","EPOCH":"2022-12-07T19:50:25.971072","PERIOD":"95.592","GP_ID":"219739361","EPHEMERIS_TYPE":"0"}];
